[{"OBJECT_NAME":"STARLINK-1212","OBJECT_ID":"2020-012AX","EPOCH":"2026-03-10T00:00:02.999808","MEAN_MOTION":15.52195676,"ECCENTRICITY":0.00060327,"INCLINATION":53.0499,"RA_OF_ASC_NODE":348.596,"ARG_OF_PERICENTER":115.9645,"MEAN_ANOMALY":356.8868,"EPHEMERIS_TYPE":0,"CLASSIFICATION_TYPE":"U","NORAD_CAT_ID":45223,"ELEMENT_SET_NO":999,"REV_AT_EPOCH":585,"BSTAR":0.0014830065,"MEAN_MOTION_DOT":0.00092073,"MEAN_MOTION_DDOT":0},{"OBJECT_NAME":"STARLINK-1308","OBJECT_ID":"2020-019BM","EPOCH":"2026-03-09T11:44:15.370656","MEAN_MOTION":15.50558102,"ECCENTRICITY":0.00022951,"INCLINATION":53.0542,"RA_OF_ASC_NODE":153.0711,"ARG_OF_PERICENTER":20.5491,"MEAN_ANOMALY":339.561,"EPHEMERIS_TYPE":0,"CLASSIFICATION_TYPE":"U","NORAD_CAT_ID":45419,"ELEMENT_SET_NO":999,"REV_AT_EPOCH":32964,"BSTAR":0.0016250615,"MEAN_MOTION_DOT":0.00095173,"MEAN_MOTION_DDOT":0}]
